[{"OBJECT_NAME":"STARLINK-5406","OBJECT_ID":"2022-177AS","EPOCH":"2026-03-09T22:00:01.999584","MEAN_MOTION":15.06794089,"ECCENTRICITY":0.00020868,"INCLINATION":43.0007,"RA_OF_ASC_NODE":118.9128,"ARG_OF_PERICENTER":247.3845,"MEAN_ANOMALY":35.0053,"EPHEMERIS_TYPE":0,"CLASSIFICATION_TYPE":"U","NORAD_CAT_ID":54860,"ELEMENT_SET_NO":999,"REV_AT_EPOCH":572,"BSTAR":0.0039409589,"MEAN_MOTION_DOT":0.00059974,"MEAN_MOTION_DDOT":0},{"OBJECT_NAME":"CZ-6A DEB","OBJECT_ID":"2022-151EL","EPOCH":"2026-03-09T12:09:26.951616","MEAN_MOTION":14.86893831,"ECCENTRICITY":0.00944101,"INCLINATION":98.6325,"RA_OF_ASC_NODE":168.3306,"ARG_OF_PERICENTER":70.5159,"MEAN_ANOMALY":290.6224,"EPHEMERIS_TYPE":0,"CLASSIFICATION_TYPE":"U","NORAD_CAT_ID":54412,"ELEMENT_SET_NO":999,"REV_AT_EPOCH":17774,"BSTAR":0.0014840705,"MEAN_MOTION_DOT":0.00014338,"MEAN_MOTION_DDOT":0}]
